AFRL-XVI                
1 56942U 23084L   23195.75604951  .00012179  00000+0  68897-3 0  9990
2 56942  97.5163 311.8870 0012248 114.1231 246.1282 15.13142761  4827
2023-084M               
1 56943U 23084M   23196.08666486  .00007822  00000+0  44534-3 0  9990
2 56943  97.5130 312.1963 0012653 107.2382 253.0235 15.13035548  4873
2023-084N               
1 56944U 23084N   23196.08508206  .00007936  00000+0  45081-3 0  9990
2 56944  97.5118 312.1933 0012856 105.8156 254.4494 15.13110071  4872
2023-084P               
1 56945U 23084P   23196.07918748  .00018425  00000+0  10255-2 0  9995
2 56945  97.5124 312.1857 0011226 110.7247 249.5188 15.13642062  4876
GREGOIRE                
1 56946U 23084Q   23195.75127412  .00011238  00000+0  63238-3 0  9995
2 56946  97.5151 311.8885 0012726 108.9401 251.3210 15.13348621  4827
ICEYE-X30               
1 56947U 23084R   23195.94778568  .00014407  00000+0  80574-3 0  9994
2 56947  97.5138 312.0786 0012934 104.2040 256.0629 15.13505387  4858
2023-084S               
1 56948U 23084S   23196.27664095  .00019296  00000+0  10717-2 0  9993
2 56948  97.5119 312.3809 0011395 109.3184 250.9280 15.13704982  4906
ICEYE-X23               
1 56949U 23084T   23195.74971958  .00014157  00000+0  79266-3 0  9990
2 56949  97.5149 311.8895 0012825 107.1308 253.1329 15.13471044  4822
BLACKJACK ACES-3        
1 56950U 23084U   23196.08287704  .00007081  00000+0  40129-3 0  9993
2 56950  97.5147 312.2087 0014006 102.2699 258.0102 15.13221631  4875
QPS-SAR-6 AMATERU-III   
1 56951U 23084V   23196.73774526  .00015076  00000+0  83754-3 0  9993
2 56951  97.5149 312.8691 0013139 103.4402 256.8295 15.13733044  4972
BLACKJACK ACES-4        
1 56952U 23084W   23195.74791552  .00009222  00000+0  51799-3 0  9992
2 56952  97.5140 311.8848 0014448 105.6084 254.6743 15.13449471  4827
RUNNER-1 (TYVAK-1005)   
1 56953U 23084X   23195.74921938  .00005592  00000+0  31696-3 0  9996
2 56953  97.5135 311.8781 0014932 103.8913 256.3980 15.13298615  4821
HOTSAT-1                
1 56954U 23084Y   23196.74071994  .00004720  00000+0  26815-3 0  9995
2 56954  97.5158 312.8697 0014680 103.9611 256.3254 15.13298568  4977
BLACKJACK ACES-2        
1 56955U 23084Z   23195.74648040  .00009516  00000+0  53366-3 0  9996
2 56955  97.5138 311.8856 0015092 106.8807 253.4081 15.13488464  4825
BLACKJACK ACES-1        
1 56956U 23084AA  23196.73635637  .00009403  00000+0  52609-3 0  9999
2 56956  97.5153 312.8732 0014698 105.9709 254.3142 15.13579879  4974
ION SCV-011             
1 56957U 23084AB  23196.05607755  .00002424  00000+0  18678-3 0  9999
2 56957  97.7068 312.3375 0018400 239.2979 120.6433 15.02470697  4867
SPEI SATELLES           
1 56958U 23084AC  23195.74416902  .00007188  00000+0  40326-3 0  9994
2 56958  97.5147 311.8943 0015143 108.1049 252.1833 15.13563335  4827
PHOTON-04               
1 56959U 23084AD  23196.33897113  .00006918  00000+0  38809-3 0  9991
2 56959  97.5147 312.4791 0015311 106.4176 253.8739 15.13579444  4916
2023-084AE              
1 56960U 23084AE  23196.00854881  .00005537  00000+0  31188-3 0  9991
2 56960  97.5166 312.1548 0014453 113.4511 246.8241 15.13533284  4869
ICEYE-X26               
1 56961U 23084AF  23195.60568401  .00016123  00000+0  88599-3 0  9998
2 56961  97.5131 311.7648 0015045 107.7025 252.5851 15.14082666  4801
2023-084AG              
1 56962U 23084AG  23196.33620717  .00009203  00000+0  51219-3 0  9999
2 56962  97.5146 312.4826 0015741 104.8411 255.4565 15.13763090  4916
ICEYE-X25               
1 56963U 23084AH  23196.33223056  .00016507  00000+0  90610-3 0  9998
2 56963  97.5154 312.4914 0015168 107.1102 253.1792 15.14115953  4917
2023-084AJ              
1 56964U 23084AJ  23196.00679488  .00004492  00000+0  25320-3 0  9993
2 56964  97.5157 312.1607 0016239 105.1177 255.1852 15.13591276  4865
DROID.001               
1 56965U 23084AK  23195.93799444  .00009262  00000+0  51438-3 0  9999
2 56965  97.5129 312.0861 0015557 102.7885 257.5086 15.13840280  4853
2023-084AL              
1 56966U 23084AL  23195.73927730  .00008400  00000+0  46687-3 0  9992
2 56966  97.5166 311.9082 0016073 106.6567 253.6430 15.13834802  4822
MUSAT1                  
1 56967U 23084AM  23195.73352127  .00017132  00000+0  93442-3 0  9998
2 56967  97.5135 311.9020 0015379 105.3018 254.9915 15.14332043  4829
2023-084AN              
1 56968U 23084AN  23195.60563283  .00008517  00000+0  47232-3 0  9995
2 56968  97.5156 311.7753 0016364 106.2655 254.0378 15.13904928  4804
SPACEBEE-179            
1 56969U 23084AP  23196.05947911  .00017032  00000+0  92288-3 0  9993
2 56969  97.5167 312.2464 0016401 103.7950 256.5109 15.14553548  4879
LEMUR-2-EMBRIONOVIS     
1 56970U 23084AQ  23196.06474542  .00005068  00000+0  28172-3 0  9998
2 56970  97.5205 312.2559 0017574 103.8087 256.5102 15.14006737  4879
MISR-A-1                
1 56971U 23084AR  23196.05793039  .00019736  00000+0  10647-2 0  9997
2 56971  97.5087 312.2150 0015672  98.4487 261.8522 15.14687787  4870
SPACEBEE-177            
1 56972U 23084AS  23195.99208207  .00016642  00000+0  89970-3 0  9997
2 56972  97.5170 312.1851 0016675 103.7579 256.5510 15.14634331  4861
SPACEBEE-178            
1 56973U 23084AT  23196.32200150  .00013095  00000+0  70947-3 0  9998
2 56973  97.5175 312.5135 0016852 104.5289 255.7814 15.14612488  4913
LEMUR-2-NAZIYAH         
1 56974U 23084AU  23196.05968212  .00021952  00000+0  11897-2 0  9998
2 56974  97.5114 312.2235 0016637  99.1564 261.1551 15.14487704  4876
SPACEBEE-176            
1 56975U 23084AV  23196.05713116  .00017338  00000+0  93601-3 0  9997
2 56975  97.5168 312.2510 0016827 103.2492 257.0618 15.14674446  4879
SPACEBEE-174            
1 56976U 23084AW  23196.05598816  .00017425  00000+0  93904-3 0  9999
2 56976  97.5170 312.2531 0016901 103.0542 257.2578 15.14735462  4876
LEMUR-2-AADAM-ALIYAH    
1 56977U 23084AX  23196.32237487  .00016940  00000+0  91762-3 0  9995
2 56977  97.5134 312.4953 0016981  99.2815 261.0338 15.14557257  4910
SPACEBEE-173            
1 56978U 23084AY  23196.31951553  .00017745  00000+0  95484-3 0  9991
2 56978  97.5172 312.5159 0017119 102.0826 258.2325 15.14781199  4919
SPACEBEE-172            
1 56979U 23084AZ  23196.05576303  .00016535  00000+0  89171-3 0  9991
2 56979  97.5170 312.2539 0017435 103.2023 257.1155 15.14713881  4877
SPACEBEE-171            
1 56980U 23084BA  23196.31898083  .00017763  00000+0  95509-3 0  9990
2 56980  97.5172 312.5170 0017234 102.0143 258.3022 15.14806623  4910
SKYKRAFT-3              
1 56981U 23084BB  23196.74013411  .00014417  00000+0  80452-3 0  9996
2 56981  97.5152 312.8673 0013429 102.8910 257.3823 15.13578172  4970
SPACEBEE-169            
1 56982U 23084BC  23196.32154980  .00015320  00000+0  82990-3 0  9991
2 56982  97.5169 312.5109 0017518 102.0847 258.2349 15.14569622  4912
SPACEBEE-170            
1 56983U 23084BD  23195.32751482  .00015863  00000+0  85409-3 0  9991
2 56983  97.5169 311.5381 0016661 103.4583 256.8507 15.14791921  4766
SPACEBEE-168            
1 56984U 23084BE  23196.05352575  .00019337  00000+0  10378-2 0  9995
2 56984  97.5184 312.2653 0017562 104.0713 256.2473 15.14848877  4878
SPACEBEE-175            
1 56985U 23084BF  23195.32358077  .00015014  00000+0  80351-3 0  9995
2 56985  97.5171 311.5448 0018398 108.3063 252.0172 15.14991774  4765
2023-084BG              
1 56986U 23084BG  23196.05479950  .00012809  00000+0  69280-3 0  9998
2 56986  97.5170 312.2539 0018101 100.1896 260.1378 15.14658203  4877
2023-084BH              
1 56987U 23084BH  23196.05333462  .00014014  00000+0  75515-3 0  9994
2 56987  97.5099 312.2263 0017232  96.1913 264.1283 15.14783319  4876
2023-084BJ              
1 56988U 23084BJ  23195.32740720  .00010845  00000+0  58699-3 0  9995
2 56988  97.5130 311.5215 0017949 100.2381 260.0876 15.14676006  4768
MRC-100                 
1 56993U 23084BV  23195.89916492  .00014156  00000+0  81906-3 0  9990
2 56993  97.5091 311.9679 0019695 122.6282 237.6853 15.12193962  4843
2023-085A               
1 57004U 23085A   23196.06488778  .00007505  00000+0  48711-3 0  9993
2 57004  97.4644 302.2481 0012385 155.4560 204.7261 15.08278409  4502
2023-085B               
1 57005U 23085B   23196.06367148  .00009012  00000+0  58233-3 0  9996
2 57005  97.4581 302.2264 0012985 156.7621 203.4198 15.08378574  4509
2023-085C               
1 57006U 23085C   23196.06323260  .00009342  00000+0  60314-3 0  9993
2 57006  97.4601 302.2344 0012597 157.0236 203.1559 15.08402824  4501
2023-085D               
1 57007U 23085D   23196.06216390  .00009294  00000+0  59913-3 0  9998
2 57007  97.4643 302.2517 0013071 158.3715 201.8069 15.08455751  4502
2023-085E               
1 57008U 23085E   23196.06105936  .00009526  00000+0  61297-3 0  9998
2 57008  97.4584 302.2308 0013265 159.5057 200.6706 15.08513532  4509
2023-085F               
1 57009U 23085F   23196.05983868  .00009594  00000+0  61624-3 0  9995
2 57009  97.4630 302.2498 0013328 160.7697 199.4038 15.08575820  4507
2023-085G               
1 57010U 23085G   23196.05832276  .00009940  00000+0  63715-3 0  9991
2 57010  97.4598 302.2394 0012210 162.0778 198.0884 15.08654935  4500
2023-085H               
1 57011U 23085H   23196.05681062  .00009912  00000+0  63405-3 0  9992
2 57011  97.4579 302.2341 0012477 163.7593 196.4038 15.08729214  4506
2023-085J               
1 57012U 23085J   23196.05750590  .00008266  00000+0  53040-3 0  9991
2 57012  97.4601 302.2416 0013744 163.3393 196.8290 15.08653902  4502
2023-085K               
1 57013U 23085K   23196.05610176  .00010160  00000+0  64899-3 0  9997
2 57013  97.4580 302.2353 0012932 164.4102 195.7527 15.08768062  4502
2023-085L               
1 57014U 23085L   23196.05626279  .00008437  00000+0  54069-3 0  9991
2 57014  97.4640 302.2579 0011653 164.6629 195.4956 15.08716941  4507
